CENTISPACE-1 OBJECT K   
1 68359U 26060K   26087.86940483  .00000031  00000+0  35282-4 0  9997
2 68359  54.9801   3.3573 0014665 314.9648  45.0162 14.75497382   927
SUPERVIEW NEO-2 OBJECT A
1 68377U 26062A   26087.10259730  .00001488  00000+0  72014-4 0  9995
2 68377  97.4379  95.5549 0008168 263.6047  96.4258 15.20117201   330
SUPERVIEW NEO-2 OBJECT B
1 68378U 26062B   26086.04924529  .00003139  00000+0  14873-3 0  9996
2 68378  97.4356  94.5245 0010396 272.3840  87.6205 15.20012563   173
CZ-2D R/B               
1 68379U 26062C   26089.50554603  .00008834  00000+0  28411-3 0  9993
2 68379  97.4970  97.8316 0053675  45.4716 315.0891 15.31065144   702
SHIYAN-33               
1 68405U 26064A   26089.24000306  .00007786  00000+0  32763-3 0  9992
2 68405  97.4664 165.1746 0014969 220.0073 140.0062 15.23563187   479
2026-065A               
1 68408U 26065A   26087.94058999  .00001379  00000+0  70532-4 0  9991
2 68408  97.4112 330.1101 0015809 287.1112  72.8390 15.18211376    88
