CCSDS_OMM_VERS = 2.0
CREATION_DATE  = 
ORIGINATOR     = 

OBJECT_NAME    = CENTISPACE-1 OBJECT K
OBJECT_ID      = 2026-060K
CENTER_NAME    = EARTH
REF_FRAME      = TEME
TIME_SYSTEM    = UTC
MEAN_ELEMENT_THEORY = SGP/SGP4

EPOCH          = 2026-03-28T20:51:56.577312
MEAN_MOTION    = 14.75497382
ECCENTRICITY   = .00146657
INCLINATION    = 54.9801
RA_OF_ASC_NODE = 3.3573
ARG_OF_PERICENTER = 314.9648
MEAN_ANOMALY   = 45.0162

EPHEMERIS_TYPE = 0
CLASSIFICATION_TYPE = U
NORAD_CAT_ID   = 68359
ELEMENT_SET_NO = 999
REV_AT_EPOCH   = 92
BSTAR          = .35282325E-4
MEAN_MOTION_DOT = .31E-6
MEAN_MOTION_DDOT = 0

CCSDS_OMM_VERS = 2.0
CREATION_DATE  = 
ORIGINATOR     = 

OBJECT_NAME    = SUPERVIEW NEO-2 OBJECT A
OBJECT_ID      = 2026-062A
CENTER_NAME    = EARTH
REF_FRAME      = TEME
TIME_SYSTEM    = UTC
MEAN_ELEMENT_THEORY = SGP/SGP4

EPOCH          = 2026-03-28T02:27:44.406720
MEAN_MOTION    = 15.20117201
ECCENTRICITY   = .00081688
INCLINATION    = 97.4379
RA_OF_ASC_NODE = 95.5549
ARG_OF_PERICENTER = 263.6047
MEAN_ANOMALY   = 96.4258

EPHEMERIS_TYPE = 0
CLASSIFICATION_TYPE = U
NORAD_CAT_ID   = 68377
ELEMENT_SET_NO = 999
REV_AT_EPOCH   = 33
BSTAR          = .72014081E-4
MEAN_MOTION_DOT = .1488E-4
MEAN_MOTION_DDOT = 0

CCSDS_OMM_VERS = 2.0
CREATION_DATE  = 
ORIGINATOR     = 

OBJECT_NAME    = SUPERVIEW NEO-2 OBJECT B
OBJECT_ID      = 2026-062B
CENTER_NAME    = EARTH
REF_FRAME      = TEME
TIME_SYSTEM    = UTC
MEAN_ELEMENT_THEORY = SGP/SGP4

EPOCH          = 2026-03-27T01:10:54.793056
MEAN_MOTION    = 15.20012563
ECCENTRICITY   = .00103961
INCLINATION    = 97.4356
RA_OF_ASC_NODE = 94.5245
ARG_OF_PERICENTER = 272.3840
MEAN_ANOMALY   = 87.6205

EPHEMERIS_TYPE = 0
CLASSIFICATION_TYPE = U
NORAD_CAT_ID   = 68378
ELEMENT_SET_NO = 999
REV_AT_EPOCH   = 17
BSTAR          = .14872926E-3
MEAN_MOTION_DOT = .3139E-4
MEAN_MOTION_DDOT = 0

CCSDS_OMM_VERS = 2.0
CREATION_DATE  = 
ORIGINATOR     = 

OBJECT_NAME    = CZ-2D R/B
OBJECT_ID      = 2026-062C
CENTER_NAME    = EARTH
REF_FRAME      = TEME
TIME_SYSTEM    = UTC
MEAN_ELEMENT_THEORY = SGP/SGP4

EPOCH          = 2026-03-30T12:07:59.176992
MEAN_MOTION    = 15.31065144
ECCENTRICITY   = .0053675
INCLINATION    = 97.4970
RA_OF_ASC_NODE = 97.8316
ARG_OF_PERICENTER = 45.4716
MEAN_ANOMALY   = 315.0891

EPHEMERIS_TYPE = 0
CLASSIFICATION_TYPE = U
NORAD_CAT_ID   = 68379
ELEMENT_SET_NO = 999
REV_AT_EPOCH   = 70
BSTAR          = .28411E-3
MEAN_MOTION_DOT = .8834E-4
MEAN_MOTION_DDOT = 0

CCSDS_OMM_VERS = 2.0
CREATION_DATE  = 
ORIGINATOR     = 

OBJECT_NAME    = SHIYAN-33
OBJECT_ID      = 2026-064A
CENTER_NAME    = EARTH
REF_FRAME      = TEME
TIME_SYSTEM    = UTC
MEAN_ELEMENT_THEORY = SGP/SGP4

EPOCH          = 2026-03-30T05:45:36.264384
MEAN_MOTION    = 15.23563187
ECCENTRICITY   = .00149691
INCLINATION    = 97.4664
RA_OF_ASC_NODE = 165.1746
ARG_OF_PERICENTER = 220.0073
MEAN_ANOMALY   = 140.0062

EPHEMERIS_TYPE = 0
CLASSIFICATION_TYPE = U
NORAD_CAT_ID   = 68405
ELEMENT_SET_NO = 999
REV_AT_EPOCH   = 47
BSTAR          = .32762684E-3
MEAN_MOTION_DOT = .7786E-4
MEAN_MOTION_DDOT = 0

CCSDS_OMM_VERS = 2.0
CREATION_DATE  = 
ORIGINATOR     = 

OBJECT_NAME    = 2026-065A
OBJECT_ID      = 2026-065A
CENTER_NAME    = EARTH
REF_FRAME      = TEME
TIME_SYSTEM    = UTC
MEAN_ELEMENT_THEORY = SGP/SGP4

EPOCH          = 2026-03-28T22:34:26.975136
MEAN_MOTION    = 15.18211376
ECCENTRICITY   = .0015809
INCLINATION    = 97.4112
RA_OF_ASC_NODE = 330.1101
ARG_OF_PERICENTER = 287.1112
MEAN_ANOMALY   = 72.8390

EPHEMERIS_TYPE = 0
CLASSIFICATION_TYPE = U
NORAD_CAT_ID   = 68408
ELEMENT_SET_NO = 999
REV_AT_EPOCH   = 8
BSTAR          = .70532E-4
MEAN_MOTION_DOT = .1379E-4
MEAN_MOTION_DDOT = 0

